ATLAS CENTAUR 2         
1 00694U 63047A   26169.83445700  .00000938  00000+0  98980-4 0  9991
2 00694  30.3586 350.1824 0546002 252.0384 101.9983 14.12522330145936
THOR AGENA D R/B        
1 00733U 64002A   26169.90120249  .00000095  00000+0  51264-4 0  9991
2 00733  99.1153 188.7256 0032244 325.5116  34.3975 14.34066006252806
SL-3 R/B                
1 00877U 64053B   26169.97225017  .00000049  00000+0  33740-4 0  9990
2 00877  65.0777  34.2789 0080981 260.5466  98.6474 14.61427340281599
SL-8 R/B                
1 02802U 67045B   26169.67745478  .00000146  00000+0  47862-4 0  9997
2 02802  74.0095 159.4752 0063374 143.4698 217.0809 14.45682601103615
SL-8 R/B                
1 03230U 68040B   26169.91262739  .00002397  00000+0  17614-3 0  9991
2 03230  74.0309 106.7621 0025994 259.6154 100.2105 15.03824869105222
OAO 2                   
1 03597U 68110A   26169.43423514  .00000163  00000+0  49084-4 0  9998
2 03597  34.9943  62.7150 0006210 282.7705  77.2292 14.47352506 33708
ISIS 1                  
1 03669U 69009A   26169.34208588  .00000026  00000+0  18762-4 0  9995
2 03669  88.4427 144.2727 1706254 245.8900  95.4783 11.30433881359903
SERT 2                  
1 04327U 70009A   26169.79448756  .00000004  00000+0  62603-4 0  9990
2 04327  99.2841 107.4214 0003927 268.2156 120.3050 13.58739301793629
SL-3 R/B                
1 05118U 71028B   26169.90387242  .00041510  00000+0  34436-3 0  9995
2 05118  81.2335 286.1941 0014002 273.9317  86.0340 15.69880842  4511
ASTEX 1                 
1 05560U 71089A   26169.93447879  .00000280  00000+0  71085-4 0  9990
2 05560  92.6997 184.4186 0017951 101.0617 259.2609 14.50852730876987
SL-8 R/B                
1 05730U 71119B   26169.89379466  .00002527  00000+0  13166-3 0  9995
2 05730  73.8877 346.2626 0543729 291.8851  62.5342 14.39514927670044
OAO 3 (COPERNICUS)      
1 06153U 72065A   26169.48745992  .00000216  00000+0  48539-4 0  9998
2 06153  35.0060  82.9949 0007344 265.0856 261.8503 14.60060863860937
ATLAS CENTAUR R/B       
1 06155U 72065B   26169.42628941  .00000841  00000+0  11718-3 0  9990
2 06155  35.0015  75.2769 0033069 139.4696 220.8474 14.77923122856170
SL-8 R/B                
1 08459U 75112B   26169.77968800  .00000182  00000+0  68305-4 0  9997
2 08459  74.0591 192.9442 0016863 259.7178 100.2075 14.38247118646402
SL-3 R/B                
1 10114U 77057B   26169.89784899  .00008530  00000+0  16554-3 0  9998
2 10114  97.5842 346.5209 0005452 277.4683  82.5947 15.47913145683974
SEASAT 1                
1 10967U 78064A   26169.96877844  .00000158  00000+0  82633-4 0  9994
2 10967 108.0175 338.0286 0001765 240.2691 119.8279 14.46244386521153
SL-14 R/B               
1 11267U 79011B   26169.91924635  .00000407  00000+0  37521-4 0  9990
2 11267  82.5237   0.5102 0017520  80.3286 279.9912 14.92015528543879
SL-8 R/B                
1 11574U 79089B   26169.73081532  .00000165  00000+0  57797-4 0  9994
2 11574  74.0693 263.9999 0015015  47.1602 313.0814 14.42404632450670
SL-14 R/B               
1 11672U 80005B   26169.86471400  .00000322  00000+0  29928-4 0  9994
2 11672  82.5138 211.2490 0015646 180.2346 179.8869 14.91029933491565
SL-8 R/B                
1 12139U 81003B   26169.80433528  .00012995  00000+0  31652-3 0  9990
2 12139  82.9366 196.2692 0250755 185.5487 174.2963 15.14267448329962
SL-3 R/B                
1 12465U 81046B   26169.93895151  .00009295  00000+0  20045-3 0  9990
2 12465  81.2297 167.9588 0018363  31.9880 328.2475 15.44227837454044
SL-3 R/B                
1 12904U 81103B   26169.96017730  .00003344  00000+0  14391-3 0  9990
2 12904  81.1585  94.5505 0011718 309.6159  50.4038 15.22297115988634
SL-3 R/B                
1 13068U 82013B   26169.93116967  .00002893  00000+0  12195-3 0  9990
2 13068  81.1737  42.0109 0021511 194.8962 165.1639 15.22795608419754
SL-3 R/B                
1 13154U 82039B   26169.88961495  .00002864  00000+0  17066-3 0  9992
2 13154  81.1449  99.1189 0028593 350.5444   9.5239 15.10548083396913
SL-3 R/B                
1 13403U 82079B   26169.88692083  .00003780  00000+0  14572-3 0  9994
2 13403  81.1462  73.4770 0023853 179.7583 180.3667 15.25800438393129
SL-14 R/B               
1 13553U 82092B   26169.92736942  .00000302  00000+0  31134-4 0  9994
2 13553  82.5680  46.6751 0019521 329.2624  42.2334 14.86748787343977
SL-3 R/B                
1 13819U 83010B   26169.67379705  .00011271  00000+0  20474-3 0  9993
2 13819  81.1010 238.1343 0015428  57.3765 302.8968 15.49275403373562
SL-3 R/B                
1 14208U 83075B   26169.95272334  .00007626  00000+0  18894-3 0  9990
2 14208  97.6102 178.5293 0019459 222.3473 137.6271 15.40518117345730
COSMOS 1536             
1 14699U 84013A   26169.93392902  .00004214  00000+0  16693-3 0  9994
2 14699  82.5442   7.1047 0012616 288.4600  71.5266 15.25066291288045
SL-14 R/B               
1 14820U 84027B   26169.69628984  .00000350  00000+0  37160-4 0  9990
2 14820  82.5411 150.3019 0018004   4.3724 355.7646 14.86060680262634
