OBJECT_NAME,OBJECT_ID,EPOCH,MEAN_MOTION,ECCENTRICITY,INCLINATION,RA_OF_ASC_NODE,ARG_OF_PERICENTER,MEAN_ANOMALY,EPHEMERIS_TYPE,CLASSIFICATION_TYPE,NORAD_CAT_ID,ELEMENT_SET_NO,REV_AT_EPOCH,BSTAR,MEAN_MOTION_DOT,MEAN_MOTION_DDOT
ATLAS CENTAUR 2,1963-047A,2026-06-18T20:01:37.084800,14.12522330,.05460028,30.3586,350.1824,252.0384,101.9983,0,U,694,999,14593,.9898003E-4,.938E-5,0
THOR AGENA D R/B,1964-002A,2026-06-18T21:37:43.895136,14.34066006,.00322444,99.1153,188.7256,325.5116,34.3975,0,U,733,999,25280,.51264484E-4,.95E-6,0
SL-3 R/B,1964-053B,2026-06-18T23:20:02.414688,14.61427340,.00809814,65.0777,34.2789,260.5466,98.6474,0,U,877,999,28159,.33739523E-4,.49E-6,0
SL-8 R/B,1967-045B,2026-06-18T16:15:32.092992,14.45682601,.00633747,74.0095,159.4752,143.4698,217.0809,0,U,2802,999,10361,.47861941E-4,.146E-5,0
SL-8 R/B,1968-040B,2026-06-18T21:54:11.006496,15.03824869,.00259942,74.0309,106.7621,259.6154,100.2105,0,U,3230,999,10522,.17614456E-3,.2397E-4,0
OAO 2,1968-110A,2026-06-18T10:25:17.916096,14.47352506,.000621,34.9943,62.7150,282.7705,77.2292,0,U,3597,999,3370,.49084E-4,.163E-5,0
ISIS 1,1969-009A,2026-06-18T08:12:36.220032,11.30433881,.1706254,88.4427,144.2727,245.8900,95.4783,0,U,3669,999,35990,.18762E-4,.26E-6,0
SERT 2,1970-009A,2026-06-18T19:04:03.725184,13.58739301,.00039271,99.2841,107.4214,268.2156,120.3050,0,U,4327,999,79362,.62602564E-4,.4E-7,0
SL-3 R/B,1971-028B,2026-06-18T21:41:34.577088,15.69880842,.00140027,81.2335,286.1941,273.9317,86.0340,0,U,5118,999,451,.34435764E-3,.4151E-3,0
ASTEX 1,1971-089A,2026-06-18T22:25:38.967456,14.50852730,.0017951,92.6997,184.4186,101.0617,259.2609,0,U,5560,999,87698,.7108509E-4,.28E-5,0
SL-8 R/B,1971-119B,2026-06-18T21:27:03.858624,14.39514927,.05437296,73.8877,346.2626,291.8851,62.5342,0,U,5730,999,67004,.13166318E-3,.2527E-4,0
OAO 3 (COPERNICUS),1972-065A,2026-06-18T11:41:56.537088,14.60060863,.0007344,35.0060,82.9949,265.0856,261.8503,0,U,6153,999,86093,.48539E-4,.216E-5,0
ATLAS CENTAUR R/B,1972-065B,2026-06-18T10:13:51.405024,14.77923122,.0033069,35.0015,75.2769,139.4696,220.8474,0,U,6155,999,85617,.11718E-3,.841E-5,0
SL-8 R/B,1975-112B,2026-06-18T18:42:45.043200,14.38247118,.00168631,74.0591,192.9442,259.7178,100.2075,0,U,8459,999,64640,.68304887E-4,.182E-5,0
SL-3 R/B,1977-057B,2026-06-18T21:32:54.152736,15.47913145,.00054526,97.5842,346.5209,277.4683,82.5947,0,U,10114,999,68397,.16554041E-3,.853E-4,0
SEASAT 1,1978-064A,2026-06-18T23:15:02.457216,14.46244386,.00017656,108.0175,338.0286,240.2691,119.8279,0,U,10967,999,52115,.82632705E-4,.158E-5,0
SL-14 R/B,1979-011B,2026-06-18T22:03:42.884640,14.92015528,.00175209,82.5237,0.5102,80.3286,279.9912,0,U,11267,999,54387,.37520602E-4,.407E-5,0
SL-8 R/B,1979-089B,2026-06-18T17:32:22.443648,14.42404632,.00150156,74.0693,263.9999,47.1602,313.0814,0,U,11574,999,45067,.5779697E-4,.165E-5,0
SL-14 R/B,1980-005B,2026-06-18T20:45:11.289600,14.91029933,.00156464,82.5138,211.2490,180.2346,179.8869,0,U,11672,999,49156,.2992773E-4,.322E-5,0
SL-8 R/B,1981-003B,2026-06-18T19:18:14.568192,15.14267448,.02507553,82.9366,196.2692,185.5487,174.2963,0,U,12139,999,32996,.31651663E-3,.12995E-3,0
SL-3 R/B,1981-046B,2026-06-18T22:32:05.410464,15.44227837,.00183636,81.2297,167.9588,31.9880,328.2475,0,U,12465,999,45404,.2004536E-3,.9295E-4,0
SL-3 R/B,1981-103B,2026-06-18T23:02:39.318720,15.22297115,.00117184,81.1585,94.5505,309.6159,50.4038,0,U,12904,999,98863,.14390503E-3,.3344E-4,0
SL-3 R/B,1982-013B,2026-06-18T22:20:53.059488,15.22795608,.00215118,81.1737,42.0109,194.8962,165.1639,0,U,13068,999,41975,.12194951E-3,.2893E-4,0
SL-3 R/B,1982-039B,2026-06-18T21:21:02.731680,15.10548083,.00285933,81.1449,99.1189,350.5444,9.5239,0,U,13154,999,39691,.17065784E-3,.2864E-4,0
SL-3 R/B,1982-079B,2026-06-18T21:17:09.959712,15.25800438,.00238536,81.1462,73.4770,179.7583,180.3667,0,U,13403,999,39312,.14571614E-3,.378E-4,0
SL-14 R/B,1982-092B,2026-06-18T22:15:24.717888,14.86748787,.00195213,82.5680,46.6751,329.2624,42.2334,0,U,13553,999,34397,.31133836E-4,.302E-5,0
SL-3 R/B,1983-010B,2026-06-18T16:10:16.065120,15.49275403,.00154289,81.1010,238.1343,57.3765,302.8968,0,U,13819,999,37356,.20473706E-3,.11271E-3,0
SL-3 R/B,1983-075B,2026-06-18T22:51:55.296576,15.40518117,.00194595,97.6102,178.5293,222.3473,137.6271,0,U,14208,999,34573,.18893693E-3,.7626E-4,0
COSMOS 1536,1984-013A,2026-06-18T22:24:51.467328,15.25066291,.0012616,82.5442,7.1047,288.4600,71.5266,0,U,14699,999,28804,.16693188E-3,.4214E-4,0
SL-14 R/B,1984-027B,2026-06-18T16:42:39.442176,14.86060680,.00180044,82.5411,150.3019,4.3724,355.7646,0,U,14820,999,26263,.37159619E-4,.35E-5,0
